0 OPS 4682 DEB
1 38426U 65027EF  13284.13804776 -.00000296  00000-0 -10807-2 0   850
2 38426 090.2867 251.8492 0037228 064.8042 295.6930 12.94872338505454
0 OPS 4682 DEB
1 38426U 65027EF  13286.14709360 -.00000006  00000-0 -49066-4 0   867
2 38426 090.2870 251.9018 0037128 059.7588 300.7199 12.94868693505713
0 OPS 4682 DEB
1 38426U 65027EF  13289.16066589  .00000663  00000-0  23382-2 0   870
2 38426 090.2877 251.9805 0037029 052.1270 308.3189 12.94864618506109
0 OPS 4682 DEB
1 38426U 65027EF  13291.16972081  .00000477  00000-0  16735-2 0   884
2 38426 090.2880 252.0335 0036947 047.0794 313.3415 12.94869338506365
0 OPS 4682 DEB
1 38426U 65027EF  13293.33331373 -.00000000  00000-0 -27380-4 0   893
2 38426 090.2881 252.0901 0036899 041.6265 318.7653 12.94877054506642
0 OPS 4682 DEB
1 38426U 65027EF  13295.65143419 -.00000085  00000-0 -32880-3 0   907
2 38426 090.2885 252.1513 0036886 035.8385 324.5198 12.94878733506947
